{
  "type": "FeatureCollection",
  "features": [
    {
      "type": "Feature",
      "properties": {
        "norad_id": 32376,
        "name": "COSMO-SKYMED 2",
        "group": "resource",
        "lat": 0.7782025655716234,
        "lon": -7.648787725938664,
        "alt_km": 625.6092066608353,
        "timestamp": "2025-12-16T23:36:35.841480+00:00",
        "meta_object_name": "COSMO-SKYMED 2",
        "meta_object_id": "2007-059A",
        "meta_epoch": "2025-12-16T08:13:20.075808",
        "meta_mean_motion": 14.82147123,
        "meta_eccentricity": 0.00013751,
        "meta_inclination": 97.8804,
        "meta_ra_of_asc_node": 171.6122,
        "meta_arg_of_pericenter": 83.1726,
        "meta_mean_anomaly": 276.9644,
        "meta_ephemeris_type": 0,
        "meta_classification_type": "U",
        "meta_norad_cat_id": 32376,
        "meta_element_set_no": 999,
        "meta_rev_at_epoch": 97491,
        "meta_bstar": 7.7935771e-05,
        "meta_mean_motion_dot": 5.68e-06,
        "meta_mean_motion_ddot": 0,
        "tle_line1": "1 32376U 07059A   25350.34259347  .00000568  00000+0  77936-4 0  9998",
        "tle_line2": "2 32376  97.8804 171.6122 0001375  83.1726 276.9644 14.82147123974913"
      },
      "geometry": {
        "type": "Point",
        "coordinates": [
          -7.648787725938664,
          0.7782025655716234
        ]
      }
    },
    {
      "type": "Feature",
      "properties": {
        "norad_id": 32382,
        "name": "RADARSAT-2",
        "group": "resource",
        "lat": 51.33909915297034,
        "lon": -15.36513873523279,
        "alt_km": 786.3229721419457,
        "timestamp": "2025-12-16T23:36:35.841491+00:00",
        "meta_object_name": "RADARSAT-2",
        "meta_object_id": "2007-061A",
        "meta_epoch": "2025-12-16T06:34:26.128992",
        "meta_mean_motion": 14.29983344,
        "meta_eccentricity": 0.00011128,
        "meta_inclination": 98.58,
        "meta_ra_of_asc_node": 354.813,
        "meta_arg_of_pericenter": 85.3107,
        "meta_mean_anomaly": 274.8203,
        "meta_ephemeris_type": 0,
        "meta_classification_type": "U",
        "meta_norad_cat_id": 32382,
        "meta_element_set_no": 999,
        "meta_rev_at_epoch": 93981,
        "meta_bstar": 7.8087662e-05,
        "meta_mean_motion_dot": 1.58e-06,
        "meta_mean_motion_ddot": 0,
        "tle_line1": "1 32382U 07061A   25350.27391353  .00000158  00000+0  78088-4 0  9998",
        "tle_line2": "2 32382  98.5800 354.8130 0001112  85.3107 274.8203 14.29983344939816"
      },
      "geometry": {
        "type": "Point",
        "coordinates": [
          -15.36513873523279,
          51.33909915297034
        ]
      }
    },
    {
      "type": "Feature",
      "properties": {
        "norad_id": 32783,
        "name": "CARTOSAT-2A",
        "group": "resource",
        "lat": -82.19140765687646,
        "lon": 133.62402836760978,
        "alt_km": 638.7847539809063,
        "timestamp": "2025-12-16T23:36:35.841501+00:00",
        "meta_object_name": "CARTOSAT-2A",
        "meta_object_id": "2008-021A",
        "meta_epoch": "2025-12-16T07:46:47.709984",
        "meta_mean_motion": 14.78946089,
        "meta_eccentricity": 0.00115989,
        "meta_inclination": 97.7932,
        "meta_ra_of_asc_node": 40.0358,
        "meta_arg_of_pericenter": 353.1492,
        "meta_mean_anomaly": 6.9559,
        "meta_ephemeris_type": 0,
        "meta_classification_type": "U",
        "meta_norad_cat_id": 32783,
        "meta_element_set_no": 999,
        "meta_rev_at_epoch": 95177,
        "meta_bstar": 0.0001476716,
        "meta_mean_motion_dot": 1.04e-05,
        "meta_mean_motion_ddot": 0,
        "tle_line1": "1 32783U 08021A   25350.32416331  .00001040  00000+0  14767-3 0  9994",
        "tle_line2": "2 32783  97.7932  40.0358 0011598 353.1492   6.9559 14.78946089951772"
      },
      "geometry": {
        "type": "Point",
        "coordinates": [
          133.62402836760978,
          -82.19140765687646
        ]
      }
    },
    {
      "type": "Feature",
      "properties": {
        "norad_id": 33320,
        "name": "HUANJING 1A (HJ-1A)",
        "group": "resource",
        "lat": -23.00742643797598,
        "lon": 155.83187202358812,
        "alt_km": 638.005089349419,
        "timestamp": "2025-12-16T23:36:35.841512+00:00",
        "meta_object_name": "HUANJING 1A (HJ-1A)",
        "meta_object_id": "2008-041A",
        "meta_epoch": "2025-12-16T08:07:39.021312",
        "meta_mean_motion": 14.83409599,
        "meta_eccentricity": 0.00199519,
        "meta_inclination": 97.6539,
        "meta_ra_of_asc_node": 338.4872,
        "meta_arg_of_pericenter": 23.1865,
        "meta_mean_anomaly": 337.0245,
        "meta_ephemeris_type": 0,
        "meta_classification_type": "U",
        "meta_norad_cat_id": 33320,
        "meta_element_set_no": 999,
        "meta_rev_at_epoch": 93129,
        "meta_bstar": 0.00025224096,
        "meta_mean_motion_dot": 2.026e-05,
        "meta_mean_motion_ddot": 0,
        "tle_line1": "1 33320U 08041A   25350.33864608  .00002026  00000+0  25224-3 0  9994",
        "tle_line2": "2 33320  97.6539 338.4872 0019951  23.1865 337.0245 14.83409599931297"
      },
      "geometry": {
        "type": "Point",
        "coordinates": [
          155.83187202358812,
          -23.00742643797598
        ]
      }
    },
    {
      "type": "Feature",
      "properties": {
        "norad_id": 33321,
        "name": "HUANJING 1B (HJ-1B)",
        "group": "resource",
        "lat": 54.6075467660594,
        "lon": -28.09906726000606,
        "alt_km": 588.6761475320263,
        "timestamp": "2025-12-16T23:36:35.841523+00:00",
        "meta_object_name": "HUANJING 1B (HJ-1B)",
        "meta_object_id": "2008-041B",
        "meta_epoch": "2025-12-16T05:32:53.280672",
        "meta_mean_motion": 14.82833754,
        "meta_eccentricity": 0.0038205,
        "meta_inclination": 97.6401,
        "meta_ra_of_asc_node": 342.0723,
        "meta_arg_of_pericenter": 64.6622,
        "meta_mean_anomaly": 295.8541,
        "meta_ephemeris_type": 0,
        "meta_classification_type": "U",
        "meta_norad_cat_id": 33321,
        "meta_element_set_no": 999,
        "meta_rev_at_epoch": 93129,
        "meta_bstar": 0.00018998255,
        "meta_mean_motion_dot": 1.506e-05,
        "meta_mean_motion_ddot": 0,
        "tle_line1": "1 33321U 08041B   25350.23117223  .00001506  00000+0  18998-3 0  9990",
        "tle_line2": "2 33321  97.6401 342.0723 0038205  64.6622 295.8541 14.82833754931299"
      },
      "geometry": {
        "type": "Point",
        "coordinates": [
          -28.09906726000606,
          54.6075467660594
        ]
      }
    },
    {
      "type": "Feature",
      "properties": {
        "norad_id": 33331,
        "name": "GEOEYE 1",
        "group": "resource",
        "lat": 52.97824619831479,
        "lon": -106.86903099146804,
        "alt_km": 674.5769726794497,
        "timestamp": "2025-12-16T23:36:35.841534+00:00",
        "meta_object_name": "GEOEYE 1",
        "meta_object_id": "2008-042A",
        "meta_epoch": "2025-12-16T08:16:47.363232",
        "meta_mean_motion": 14.64705346,
        "meta_eccentricity": 0.00027556,
        "meta_inclination": 98.1251,
        "meta_ra_of_asc_node": 61.5805,
        "meta_arg_of_pericenter": 269.7533,
        "meta_mean_anomaly": 90.3354,
        "meta_ephemeris_type": 0,
        "meta_classification_type": "U",
        "meta_norad_cat_id": 33331,
        "meta_element_set_no": 999,
        "meta_rev_at_epoch": 92338,
        "meta_bstar": 9.8332196e-05,
        "meta_mean_motion_dot": 4.76e-06,
        "meta_mean_motion_ddot": 0,
        "tle_line1": "1 33331U 08042A   25350.34499263  .00000476  00000+0  98332-4 0  9997",
        "tle_line2": "2 33331  98.1251  61.5805 0002755 269.7533  90.3354 14.64705346923389"
      },
      "geometry": {
        "type": "Point",
        "coordinates": [
          -106.86903099146804,
          52.97824619831479
        ]
      }
    },
    {
      "type": "Feature",
      "properties": {
        "norad_id": 33396,
        "name": "THEOS",
        "group": "resource",
        "lat": 21.277917168772046,
        "lon": 45.574806088290615,
        "alt_km": 824.577009790547,
        "timestamp": "2025-12-16T23:36:35.841545+00:00",
        "meta_object_name": "THEOS",
        "meta_object_id": "2008-049A",
        "meta_epoch": "2025-12-16T08:17:24.186048",
        "meta_mean_motion": 14.20097673,
        "meta_eccentricity": 0.00011578,
        "meta_inclination": 98.5869,
        "meta_ra_of_asc_node": 48.3288,
        "meta_arg_of_pericenter": 96.2638,
        "meta_mean_anomaly": 263.867,
        "meta_ephemeris_type": 0,
        "meta_classification_type": "U",
        "meta_norad_cat_id": 33396,
        "meta_element_set_no": 999,
        "meta_rev_at_epoch": 89201,
        "meta_bstar": 5.0971675e-05,
        "meta_mean_motion_dot": 6.6e-07,
        "meta_mean_motion_ddot": 0,
        "tle_line1": "1 33396U 08049A   25350.34541882  .00000066  00000+0  50972-4 0  9993",
        "tle_line2": "2 33396  98.5869  48.3288 0001157  96.2638 263.8670 14.20097673892013"
      },
      "geometry": {
        "type": "Point",
        "coordinates": [
          45.574806088290615,
          21.277917168772046
        ]
      }
    }
  ]
}